NORAD_CAT_ID,OBJECT_NAME,OBJECT_TYPE,EPOCH,MEAN_MOTION,ECCENTRICITY,INCLINATION,RA_OF_ASC_NODE,ARG_OF_PERICENTER,MEAN_ANOMALY,BSTAR,MEAN_MOTION_DOT,MEAN_MOTION_DDOT,TLE_LINE0,TLE_LINE1,TLE_LINE2,SEMIMAJOR_AXIS,PERIOD,APOGEE,PERIGEE,DECAYED
52479.0,STARLINK-3878,PAYLOAD,2024-01-27 19:38:13,15.08848072,0.0001253,53.2169,274.1876,82.7134,277.4001,0.00014018,1.944e-05,0.0,0 STARLINK-3878,1 52479U 22049AE  24027.81821357  .00001944  00000-0  14018-3 0  9999,2 52479  53.2169 274.1876 0001253  82.7134 277.4001 15.08848072 96027,6917.856,95.437,540.588,538.854,0.0
52479.0,STARLINK-3878,PAYLOAD,2024-01-27 21:13:36,15.08846434,0.0001293,53.2156,273.8996,90.362,269.752,0.00012338,1.677e-05,0.0,0 STARLINK-3878,1 52479U 22049AE  24027.88445424  .00001677  00000-0  12338-3 0  9999,2 52479  53.2156 273.8996 0001293  90.3620 269.7520 15.08846434 97112,6917.861,95.437,540.62,538.831,0.0
52479.0,STARLINK-3878,PAYLOAD,2024-01-28 01:59:45,15.08847794,0.0001311,53.2159,272.9975,102.0957,258.0182,0.00011055,1.472e-05,0.0,0 STARLINK-3878,1 52479U 22049AE  24028.08317103  .00001472  00000-0  11055-3 0  9992,2 52479  53.2159 272.9975 0001311 102.0957 258.0182 15.08847794 97145,6917.857,95.437,540.628,538.815,0.0
52479.0,STARLINK-3878,PAYLOAD,2024-01-28 19:29:00,15.0883827,0.000165,53.2165,269.7224,122.6946,237.4205,2.0672e-05,4.1e-07,0.0,0 STARLINK-3878,1 52479U 22049AE  24028.81181532  .00000041  00000-0  20672-4 0  9995,2 52479  53.2165 269.7224 0001650 122.6946 237.4205 15.08838270 96173,6917.886,95.438,540.892,538.609,0.0
52479.0,STARLINK-3878,PAYLOAD,2024-01-28 22:39:47,15.08837789,0.0001539,53.2167,269.1278,119.6279,240.4867,-0.0001173,-2.154e-05,0.0,0 STARLINK-3878,1 52479U 22049AE  24028.94429564 -.00002154  00000-0 -11730-3 0  9992,2 52479  53.2167 269.1278 0001539 119.6279 240.4867 15.08837789 97273,6917.887,95.438,540.817,538.687,0.0
52479.0,STARLINK-3878,PAYLOAD,2024-01-29 16:09:01,15.08839293,0.0001625,53.2181,265.8588,125.6534,234.4609,9.6189e-05,1.243e-05,0.0,0 STARLINK-3878,1 52479U 22049AE  24029.67293536  .00001243  00000-0  96189-4 0  9999,2 52479  53.2181 265.8588 0001625 125.6534 234.4609 15.08839293 97384,6917.883,95.438,540.872,538.623,0.0
52479.0,STARLINK-3878,PAYLOAD,2024-01-30 19:10:35,15.0883611,0.0001057,53.2163,260.806,89.3023,270.809,9.9366e-05,1.294e-05,0.0,0 STARLINK-3878,1 52479U 22049AE  24030.79902147  .00001294  00000-0  99366-4 0  9995,2 52479  53.2163 260.8060 0001057  89.3023 270.8090 15.08836110 96474,6917.892,95.438,540.489,539.026,0.0
52479.0,STARLINK-3878,PAYLOAD,2024-01-30 20:45:58,15.0883526,0.000106,53.2162,260.5087,89.2381,270.8733,8.8669e-05,1.123e-05,0.0,0 STARLINK-3878,1 52479U 22049AE  24030.86526200  .00001123  00000-0  88669-4 0  9990,2 52479  53.2162 260.5087 0001060  89.2381 270.8733 15.08835260 97569,6917.895,95.438,540.493,539.027,0.0
52479.0,STARLINK-3878,PAYLOAD,2024-01-31 15:50:37,15.08826656,0.000126,53.2158,256.9397,94.3585,265.7551,-4.3162e-05,-9.74e-06,0.0,0 STARLINK-3878,1 52479U 22049AE  24031.66015595 -.00000974  00000-0 -43162-4 0  9993,2 52479  53.2158 256.9397 0001260  94.3585 265.7551 15.08826656 96606,6917.921,95.438,540.658,538.915,0.0
52479.0,STARLINK-3878,PAYLOAD,2024-02-01 14:06:01,15.08830049,0.0001274,53.2152,252.7749,91.3966,268.7172,8.3401e-05,1.039e-05,0.0,0 STARLINK-3878,1 52479U 22049AE  24032.58751541  .00001039  00000-0  83401-4 0  9994,2 52479  53.2152 252.7749 0001274  91.3966 268.7172 15.08830049 97828,6917.911,95.438,540.657,538.894,0.0
52479.0,STARLINK-3878,PAYLOAD,2024-02-01 23:38:19,15.08836626,0.000133,53.2157,250.9926,89.3502,270.7642,0.00013057,1.791e-05,0.0,0 STARLINK-3878,1 52479U 22049AE  24032.98495189  .00001791  00000-0  13057-3 0  9995,2 52479  53.2157 250.9926 0001330  89.3502 270.7642 15.08836626 96805,6917.891,95.438,540.676,538.836,0.0
52479.0,STARLINK-3878,PAYLOAD,2024-02-02 18:42:56,15.08848253,0.0001203,53.2173,247.4256,85.156,274.9569,0.00020657,3.002e-05,0.0,0 STARLINK-3878,1 52479U 22049AE  24033.77982287  .00003002  00000-0  20657-3 0  9994,2 52479  53.2173 247.4256 0001203  85.1560 274.9569 15.08848253 96923,6917.855,95.437,540.552,538.888,0.0
52479.0,STARLINK-3878,PAYLOAD,2024-02-02 20:18:19,15.08849257,0.0001274,53.2168,247.1279,85.2037,274.9101,0.00021987,3.214e-05,0.0,0 STARLINK-3878,1 52479U 22049AE  24033.84606201  .00003214  00000-0  21987-3 0  9993,2 52479  53.2168 247.1279 0001274  85.2037 274.9101 15.08849257 98016,6917.852,95.437,540.598,538.836,0.0
52479.0,STARLINK-3878,PAYLOAD,2024-02-02 23:29:05,15.08852655,0.000138,53.2156,246.5317,88.1882,271.9269,0.00025725,3.81e-05,0.0,0 STARLINK-3878,1 52479U 22049AE  24033.97853892  .00003810  00000-0  25725-3 0  9993,2 52479  53.2156 246.5317 0001380  88.1882 271.9269 15.08852655 98037,6917.842,95.437,540.661,538.752,0.0
52479.0,STARLINK-3878,PAYLOAD,2024-02-03 20:09:06,15.08853542,0.0001403,53.2158,242.6625,112.8092,247.3049,6.126e-05,6.87e-06,0.0,0 STARLINK-3878,1 52479U 22049AE  24034.83965879  .00000687  00000-0  61260-4 0  9992,2 52479  53.2158 242.6625 0001403 112.8092 247.3049 15.08853542 97085,6917.839,95.437,540.675,538.733,0.0
52479.0,STARLINK-3878,PAYLOAD,2024-02-03 23:19:54,15.08814074,0.0001383,53.2168,242.0668,112.052,248.0619,0.0005177,7.955e-05,0.0,0 STARLINK-3878,1 52479U 22049AE  24034.97215477  .00007955  00000-0  51770-3 0  9998,2 52479  53.2168 242.0668 0001383 112.0520 248.0619 15.08814074 97103,6917.96,95.439,540.781,538.868,0.0
52479.0,STARLINK-3878,PAYLOAD,2024-02-04 19:59:53,15.0884993,0.0001457,53.2176,238.2009,108.9463,251.1688,-1.5506e-05,-5.35e-06,0.0,0 STARLINK-3878,1 52479U 22049AE  24035.83325646 -.00000535  00000-0 -15506-4 0  9991,2 52479  53.2176 238.2009 0001457 108.9463 251.1688 15.08849930 97234,6917.85,95.437,540.723,538.707,0.0
52479.0,STARLINK-3878,PAYLOAD,2024-02-05 19:50:41,15.08836134,0.0001306,53.217,233.7427,100.309,259.8049,-4.8499e-06,-3.65e-06,0.0,0 STARLINK-3878,1 52479U 22049AE  24036.82686384 -.00000365  00000-0 -48499-5 0  9999,2 52479  53.2170 233.7427 0001306 100.3090 259.8049 15.08836134 97381,6917.892,95.438,540.661,538.854,0.0
52479.0,STARLINK-3878,PAYLOAD,2024-02-06 13:19:55,15.08839032,0.0001294,53.2171,230.4731,101.4544,258.6593,5.5704e-05,5.99e-06,0.0,0 STARLINK-3878,1 52479U 22049AE  24037.55550092  .00000599  00000-0  55704-4 0  9999,2 52479  53.2171 230.4731 0001294 101.4544 258.6593 15.08839032 98579,6917.883,95.438,540.644,538.853,0.0
52479.0,STARLINK-3878,PAYLOAD,2024-02-06 18:06:04,15.08842176,0.0001275,53.2169,229.5807,98.5511,261.5626,8.0624e-05,9.96e-06,0.0,0 STARLINK-3878,1 52479U 22049AE  24037.75421842  .00000996  00000-0  80624-4 0  9991,2 52479  53.2169 229.5807 0001275  98.5511 261.5626 15.08842176 97525,6917.874,95.437,540.621,538.857,0.0
52479.0,STARLINK-3878,PAYLOAD,2024-02-07 13:10:42,15.0883509,0.0001148,53.2156,226.012,99.8689,260.2433,5.6968e-05,6.19e-06,0.0,0 STARLINK-3878,1 52479U 22049AE  24038.54910533  .00000619  00000-0  56968-4 0  9995,2 52479  53.2156 226.0120 0001148  99.8689 260.2433 15.08835090 97642,6917.895,95.438,540.555,538.966,0.0
52479.0,STARLINK-3878,PAYLOAD,2024-02-07 21:07:38,15.08841368,0.0001109,53.2159,224.5258,93.8028,266.3091,0.0001086,1.441e-05,0.0,0 STARLINK-3878,1 52479U 22049AE  24038.88030192  .00001441  00000-0  10860-3 0  9990,2 52479  53.2159 224.5258 0001109  93.8028 266.3091 15.08841368 98775,6917.876,95.437,540.508,538.974,0.0
52479.0,STARLINK-3878,PAYLOAD,2024-02-07 22:43:01,15.08844098,0.0001119,53.2159,224.2285,93.8335,266.2785,0.00013415,1.848e-05,0.0,0 STARLINK-3878,1 52479U 22049AE  24038.94653989  .00001848  00000-0  13415-3 0  9992,2 52479  53.2159 224.2285 0001119  93.8335 266.2785 15.08844098 97708,6917.868,95.437,540.507,538.959,0.0
52479.0,STARLINK-3878,PAYLOAD,2024-02-08 05:04:34,15.08833553,0.0001053,53.2147,223.0387,84.9787,275.1325,-2.4017e-05,-6.7e-06,0.0,0 STARLINK-3878,1 52479U 22049AE  24039.21150543 -.00000670  00000-0 -24017-4 0  9996,2 52479  53.2147 223.0387 0001053  84.9787 275.1325 15.08833553 97741,6917.9,95.438,540.494,539.037,0.0
52479.0,STARLINK-3878,PAYLOAD,2024-02-08 20:58:26,15.08835595,0.0001203,53.2159,220.0654,84.4974,275.6155,-7.923e-06,-4.14e-06,0.0,0 STARLINK-3878,1 52479U 22049AE  24039.87391344 -.00000414  00000-0 -79230-5 0  9998,2 52479  53.2159 220.0654 0001203  84.4974 275.6155 15.08835595 98923,6917.894,95.438,540.591,538.927,0.0
52479.0,STARLINK-3878,PAYLOAD,2024-02-09 11:16:54,15.08817238,0.0001254,53.2161,217.3892,93.5958,266.5178,0.00052854,8.129e-05,0.0,0 STARLINK-3878,1 52479U 22049AE  24040.47007956  .00008129  00000-0  52854-3 0  9999,2 52479  53.2161 217.3892 0001254  93.5958 266.5178 15.08817238 97936,6917.95,95.439,540.682,538.947,0.0
52479.0,STARLINK-3878,PAYLOAD,2024-02-09 19:13:49,15.0884804,0.0001203,53.215,215.9024,83.087,277.0258,0.00025879,3.834e-05,0.0,0 STARLINK-3878,1 52479U 22049AE  24040.80126592  .00003834  00000-0  25879-3 0  9999,2 52479  53.2150 215.9024 0001203  83.0870 277.0258 15.08848040 97982,6917.856,95.437,540.553,538.889,0.0
52479.0,STARLINK-3878,PAYLOAD,2024-02-09 20:49:12,15.08849125,0.0001278,53.2145,215.6052,85.0568,275.057,0.00023093,3.39e-05,0.0,0 STARLINK-3878,1 52479U 22049AE  24040.86750541  .00003390  00000-0  23093-3 0  9995,2 52479  53.2145 215.6052 0001278  85.0568 275.0570 15.08849125 99074,6917.852,95.437,540.602,538.833,0.0
52479.0,STARLINK-3878,PAYLOAD,2024-02-10 20:39:59,15.08852531,0.0001245,53.2151,211.1426,83.0661,277.0473,0.00034562,5.219e-05,0.0,0 STARLINK-3878,1 52479U 22049AE  24041.86110458  .00005219  00000-0  34562-3 0  9998,2 52479  53.2151 211.1426 0001245  83.0661 277.0473 15.08852531 98149,6917.842,95.437,540.568,538.846,0.0
52479.0,STARLINK-3878,PAYLOAD,2024-02-11 17:19:59,15.08850681,0.0001208,53.2157,207.277,94.153,265.96,0.00010775,1.428e-05,0.0,0 STARLINK-3878,1 52479U 22049AE  24042.72222112  .00001428  00000-0  10775-3 0  9993,2 52479  53.2157 207.2770 0001208  94.1530 265.9600 15.08850681 98276,6917.848,95.437,540.548,538.877,0.0
